#aV2013  6 14  0  0  0.00000000     288 DD+AD WGS84 FIT  NGA
## 1744 432000.00000000   300.00000000 56457 0.0000000000000
+   31     1  2  3  4  5  6  7  8  9 10 11 12 13 14 15 16 17
+         18 19 20 21 22 23 24 25 26 27 28 29 31 32  0  0  0
+          0  0  0  0  0  0  0  0  0  0  0  0  0  0  0  0  0
+          0  0  0  0  0  0  0  0  0  0  0  0  0  0  0  0  0
+          0  0  0  0  0  0  0  0  0  0  0  0  0  0  0  0  0
++         2  2  2  2  2  2  2  2  2  2  2  2  2  2  2  2  2
++         2  2  2  2  2  2  2  2  2  2  2  2  2  2  2  0  0
++         0  0  0  0  0  0  0  0  0  0  0  0  0  0  0  0  0
++         0  0  0  0  0  0  0  0  0  0  0  0  0  0  0  0  0
++         0  0  0  0  0  0  0  0  0  0  0  0  0  0  0  0  0
%c cc cc ccc ccc cccc cccc cccc cccc ccccc ccccc ccccc ccccc
%c cc cc ccc ccc cccc cccc cccc cccc ccccc ccccc ccccc ccccc
%f  0.0000000  0.000000000  0.00000000000  0.000000000000000
%f  0.0000000  0.000000000  0.00000000000  0.000000000000000
%i    0    0    0    0      0      0      0      0         0
%i    0    0    0    0      0      0      0      0         0
/*      NGA, ST. LOUIS,MO.                                  
/*   EPHEMERIS COMPUTED FROM  1 DAYS OF DATA
/*   EPOCHA SMOOTHER  
/* CCCCCCCCCCCCCCCCCCCCCCCCCCCCCCCCCCCCCCCCCCCCCCCCCCCCCCCCC
*  2013  6 14  0 10  0.00000000                                                 
P  1  15144.024807  -2263.393615  21690.352099     37.272651                    
V  1   7343.087771  26583.298614  -2260.972446      0.045335                    
P  2 -13648.318987 -20971.247691  -9415.399078    436.917831                    
V  2   -863.209446 -12430.641706  27786.125998      0.018278                    
P  3  23081.659304   9640.567007  -9762.702838    219.781764                    
V  3 -11887.948610   1734.480066 -27670.723976      0.048741                    
P  4  -7494.258879 -25319.714995   -237.941398    244.998627                    
V  4   3662.102918  -1031.620299  31408.707999      0.103586                    
P  5 -13109.327174  -8599.860628 -21473.835878   -396.918303                    
V  5  18722.051262 -19791.463448  -3366.093992     -0.007421                    
P  6  18840.002036  13369.684187 -13350.149925    188.776927                    
V  6 -17143.901530   -684.333767 -24360.900795     -0.169559                    
P  7   7895.828090 -17757.227762 -17919.654175    224.820202                    
V  7   7312.874350  21777.008275 -18609.169779      0.042283                    
P  8   2280.139631 -24268.600726  -9663.470967      6.705151                    
V  8   3990.090284  12088.867768 -29668.315116      0.001507                    
P  9  -5897.628875 -25785.965411  -2180.648406    247.640172                    
V  9   2630.066794   1423.343559 -32167.663178      0.025321                    
P 10   2207.350311 -20011.483204 -17403.674417    -83.407477                    
V 10  16934.916634 -13815.265875  18757.865495     -0.013336                    
P 11  19469.008117   4396.137794  17197.608644   -391.298061                    
V 11  10174.915161  20685.413566 -16116.890309     -0.036758                    
P 12 -21027.837106   6948.545428  14461.649194    139.203311                    
V 12  12097.636615 -14067.301769  24482.021770      0.020962                    
P 13  17178.213192  -7340.030625 -19074.799853    109.778212                    
V 13  22066.172446   9035.653729  16385.046059     -0.036452                    
P 14   2875.318670  16079.355442  21175.986117    220.344235                    
V 14 -25212.963688  -7677.043356   9193.505582     -0.002799                    
P 15 -26249.532640  -2862.156620   3932.840883   -123.212358                    
V 15  -4205.707380  -4175.053919 -30617.635526     -0.015917                    
P 16  11952.381836   8859.051592 -22049.144548   -251.349655                    
V 16 -20341.702447  19006.803344  -3063.495994      0.003810                    
P 17  -2381.902226 -16047.929456  21289.900150      9.275431                    
V 17  25534.980671   6969.512891   7966.804224     -0.038535                    
P 18 -14780.073601  21224.479468   5559.973416    258.567332                    
V 18  -7498.243210   1998.891978 -30130.556549      0.019045                    
P 19  25431.460707   8404.854767    742.686654   -380.834272                    
V 19    193.770479   2594.267479 -31504.306705     -0.030302                    
P 20  21027.858529 -12131.156859  10522.144275    103.447133                    
V 20  -6405.403633  12593.903968  26952.973515      0.021660                    
P 21  -5331.758962  20890.282504 -14591.138439   -302.991006                    
V 21  -8522.120467 -18184.149343 -22583.291785     -0.020415                    
P 22  -5359.539888  21464.015094  14790.591526    171.542798                    
V 22 -15048.783188  11307.790033 -22307.878415      0.014937                    
P 23  23977.987388  -2118.995151 -11590.339877     76.438257                    
V 23  13631.221553   5924.415051  26550.469214     -0.035608                    
P 24 -15999.599407  -1894.843957  21109.602425     -8.142246                    
V 24  -6913.304432 -25936.309351  -7522.475374     -0.007354                    
P 25 -19958.625208  16992.977294   3886.407686    109.212512                    
V 25   1678.346444  -5333.523289  31583.305812      0.046518                    
P 26 -21323.692081 -13853.852966  -8866.045353     53.153982                    
V 26  10218.055642   1847.033219 -29306.851821      0.159949                    
P 27  21258.545694  12444.332037  -9944.764712     -1.576328                    
V 27 -12856.636071   -599.347734 -28235.289801     -0.020916                    
P 28   9728.147036 -21040.863652  13380.824867    267.128674                    
V 28  12938.692459  -9668.362180 -25907.855475      0.031775                    
P 29 -18049.241637   7449.719990 -17932.465057    444.693902                    
V 29 -21433.138549  -8138.544688  18187.079113      0.033907                    
P 31   6713.549756  25534.891738   -200.822785    317.640697                    
V 31  -2252.068168   1055.771248  32365.875920      0.012584                    
P 32  20442.005771  -1889.949082  16689.004374   -558.946746                    
V 32 -14506.541101  15617.844531  20207.784905     -0.003592                    
EOF
